{
  "norad_id": 63481,
  "name": "STARLINK-33639",
  "history": [
    {
      "epoch": "2026-03-28T15:19:24.600288Z",
      "apogee_km": 484.11439169312507,
      "perigee_km": 481.833072374724,
      "latitude_deg": -8.648555282149923e-06,
      "longitude_deg": 93.45383996647976,
      "height_km": 482.755786847346,
      "semi_major_axis_km": 6861.110732033924,
      "eccentricity": 0.00016625,
      "inclination_deg": 43.0017,
      "raan_deg": 149.3624,
      "arg_perigee_deg": 269.7512,
      "mean_anomaly_deg": 90.3149,
      "mean_motion_rev_day": 15.27605169
    },
    {
      "epoch": "2026-03-29T03:52:39.965088Z",
      "apogee_km": 483.4584682355335,
      "perigee_km": 482.52123830737764,
      "latitude_deg": -2.6170315567105194e-05,
      "longitude_deg": -98.33038424662746,
      "height_km": 482.9143098367788,
      "semi_major_axis_km": 6861.126853271456,
      "eccentricity": 6.83e-05,
      "inclination_deg": 42.9984,
      "raan_deg": 146.4078,
      "arg_perigee_deg": 251.5102,
      "mean_anomaly_deg": 108.5675,
      "mean_motion_rev_day": 15.27599785
    }
  ]
}